{"fetched_at":"2026-07-12T07:15:21.624Z","source":"https://celestrak.org/NORAD/elements/gp.php?GROUP=planet&FORMAT=JSON","constellation":"pelican","records":[{"OBJECT_NAME":"PELICAN-1","OBJECT_ID":"2023-174AS","EPOCH":"2026-07-10T05:14:35.436480","CLASSIFICATION_TYPE":"U","MEAN_MOTION":15.72060428,"ECCENTRICITY":0.0002521,"INCLINATION":97.4009,"RA_OF_ASC_NODE":293.0009,"ARG_OF_PERICENTER":190.7359,"MEAN_ANOMALY":169.3851,"EPHEMERIS_TYPE":0,"NORAD_CAT_ID":58296,"ELEMENT_SET_NO":999,"REV_AT_EPOCH":14978,"BSTAR":0.000054184842,"MEAN_MOTION_DOT":0.00006951,"MEAN_MOTION_DDOT":0},{"OBJECT_NAME":"PELICAN-2","OBJECT_ID":"2025-009Y","EPOCH":"2026-07-11T17:26:04.825536","CLASSIFICATION_TYPE":"U","MEAN_MOTION":15.40632585,"ECCENTRICITY":0.0001877,"INCLINATION":97.2226,"RA_OF_ASC_NODE":283.3278,"ARG_OF_PERICENTER":92.7564,"MEAN_ANOMALY":267.3898,"EPHEMERIS_TYPE":0,"NORAD_CAT_ID":62631,"ELEMENT_SET_NO":999,"REV_AT_EPOCH":8333,"BSTAR":0.00000164416,"MEAN_MOTION_DOT":-1.3e-7,"MEAN_MOTION_DDOT":0},{"OBJECT_NAME":"PELICAN-3","OBJECT_ID":"2025-188A","EPOCH":"2026-07-10T03:59:46.596192","CLASSIFICATION_TYPE":"U","MEAN_MOTION":15.40988618,"ECCENTRICITY":0.00017162,"INCLINATION":97.1983,"RA_OF_ASC_NODE":266.9739,"ARG_OF_PERICENTER":106.385,"MEAN_ANOMALY":253.7585,"EPHEMERIS_TYPE":0,"NORAD_CAT_ID":65315,"ELEMENT_SET_NO":999,"REV_AT_EPOCH":4885,"BSTAR":0.0001483582,"MEAN_MOTION_DOT":0.00006031,"MEAN_MOTION_DDOT":0},{"OBJECT_NAME":"PELICAN-4","OBJECT_ID":"2025-188B","EPOCH":"2026-07-10T04:24:51.962400","CLASSIFICATION_TYPE":"U","MEAN_MOTION":15.40957945,"ECCENTRICITY":0.00008706,"INCLINATION":97.1997,"RA_OF_ASC_NODE":267.1461,"ARG_OF_PERICENTER":109.1636,"MEAN_ANOMALY":250.9706,"EPHEMERIS_TYPE":0,"NORAD_CAT_ID":65316,"ELEMENT_SET_NO":999,"REV_AT_EPOCH":4885,"BSTAR":0.00014596694,"MEAN_MOTION_DOT":0.00005927,"MEAN_MOTION_DDOT":0},{"OBJECT_NAME":"PELICAN-5","OBJECT_ID":"2025-276B","EPOCH":"2026-07-10T09:46:29.222688","CLASSIFICATION_TYPE":"U","MEAN_MOTION":15.32115292,"ECCENTRICITY":0.0002252,"INCLINATION":97.4128,"RA_OF_ASC_NODE":266.3707,"ARG_OF_PERICENTER":8.0491,"MEAN_ANOMALY":352.0786,"EPHEMERIS_TYPE":0,"NORAD_CAT_ID":66667,"ELEMENT_SET_NO":999,"REV_AT_EPOCH":3407,"BSTAR":0.00012936,"MEAN_MOTION_DOT":0.00003932,"MEAN_MOTION_DDOT":0},{"OBJECT_NAME":"PELICAN-6","OBJECT_ID":"2025-276AP","EPOCH":"2026-07-11T18:38:06.417888","CLASSIFICATION_TYPE":"U","MEAN_MOTION":15.31288674,"ECCENTRICITY":0.0002518,"INCLINATION":97.3729,"RA_OF_ASC_NODE":267.7783,"ARG_OF_PERICENTER":43.8687,"MEAN_ANOMALY":316.2754,"EPHEMERIS_TYPE":0,"NORAD_CAT_ID":66703,"ELEMENT_SET_NO":999,"REV_AT_EPOCH":3429,"BSTAR":0.00077306916,"MEAN_MOTION_DOT":0.00023333,"MEAN_MOTION_DDOT":0},{"OBJECT_NAME":"PELICAN-7","OBJECT_ID":"2026-100AP","EPOCH":"2026-07-11T17:07:25.162752","CLASSIFICATION_TYPE":"U","MEAN_MOTION":15.23554236,"ECCENTRICITY":0.00032058,"INCLINATION":97.3861,"RA_OF_ASC_NODE":90.2153,"ARG_OF_PERICENTER":88.2568,"MEAN_ANOMALY":271.9036,"EPHEMERIS_TYPE":0,"NORAD_CAT_ID":69017,"ELEMENT_SET_NO":999,"REV_AT_EPOCH":1054,"BSTAR":0.000049290748,"MEAN_MOTION_DOT":0.00001108,"MEAN_MOTION_DDOT":0},{"OBJECT_NAME":"PELICAN-9","OBJECT_ID":"2026-100AR","EPOCH":"2026-07-11T22:48:41.934240","CLASSIFICATION_TYPE":"U","MEAN_MOTION":15.2213807,"ECCENTRICITY":0.00021471,"INCLINATION":97.3666,"RA_OF_ASC_NODE":90.279,"ARG_OF_PERICENTER":0.7612,"MEAN_ANOMALY":359.3627,"EPHEMERIS_TYPE":0,"NORAD_CAT_ID":69019,"ELEMENT_SET_NO":999,"REV_AT_EPOCH":1057,"BSTAR":0.00005839956,"MEAN_MOTION_DOT":0.0000127,"MEAN_MOTION_DDOT":0}]}
